{
  "norad_id": 69027,
  "name": "STARLINK-37548",
  "history": [
    {
      "epoch": "2026-05-12T20:00:01.999008Z",
      "apogee_km": 312.904934825945,
      "perigee_km": 310.95143579183423,
      "latitude_deg": -40.38612290041697,
      "longitude_deg": -177.46238349485554,
      "height_km": 328.1837603167325,
      "semi_major_axis_km": 6690.065185308889,
      "eccentricity": 0.000146,
      "inclination_deg": 97.2886,
      "raan_deg": 346.9374,
      "arg_perigee_deg": 93.1605,
      "mean_anomaly_deg": 226.3532,
      "mean_motion_rev_day": 15.86562693
    }
  ]
}