STARLINK-37548          
1 69027U 26101C   26132.83335648 -.02154903  00000+0 -99820-2 0  9993
2 69027  97.2886 346.9374 0001459  93.1605 226.3532 15.86562693  2258
